{"type": "FeatureCollection", "features": [{"type": "Feature", "properties": {"ST_NM": "Jammu & Kashmir"}, "geometry": {"type": "Polygon", "coordinates": [[[74.7345, 37.0207], [74.7525, 37.0115], [74.7597, 37.0155], [74.7634, 37.0251], [74.7789, 37.0298], [74.8055, 37.0232], [74.8401, 37.0223], [74.846, 36.9899], [74.8879, 36.9459], [74.9109, 36.9124], [74.9222, 36.9061], [74.928, 36.9089], [74.9326, 36.9255], [74.9413, 36.9347], [74.9912, 36.9628], [75.0128, 36.966], [75.0187, 36.9764], [75.0631, 36.9599], [75.0853, 36.9437], [75.096, 36.9428], [75.1511, 36.9671], [75.1734, 36.9861], [75.1809, 37.0005], [75.2023, 37.0211], [75.209, 37.0368], [75.2257, 37.0374], [75.265, 37.0519], [75.2792, 37.0469], [75.3155, 37.0539], [75.3438, 37.0525], [75.3452, 37.0031], [75.352, 36.981], [75.3763, 36.9605], [75.3866, 36.9594], [75.4012, 36.968], [75.4135, 36.9675], [75.4231, 36.9607], [75.4282, 36.9506], [75.4268, 36.939], [75.4088, 36.9167], [75.4151, 36.9033], [75.4142, 36.8919], [75.417, 36.8872], [75.4378, 36.8915], [75.444, 36.8872], [75.46, 36.8306], [75.4742, 36.8108], [75.514, 36.7921], [75.6165, 36.7616], [75.6752, 36.696], [75.7483, 36.5884], [75.7694, 36.5733], [75.8096, 36.553], [75.8491, 36.5443], [75.9234, 36.5024], [75.9648, 36.49], [75.997, 36.4843], [76.0259, 36.486], [76.0773, 36.4743], [76.1251, 36.4375], [76.1731, 36.3903], [76.1986, 36.3874], [76.2548, 36.3478], [76.2921, 36.3491], [76.3282, 36.3625], [76.3524, 36.3599], [76.4042, 36.3195], [76.432, 36.3082], [76.4366, 36.2884], [76.45, 36.2694], [76.4332, 36.2512], [76.4571, 36.2405], [76.4817, 36.2114], [76.5449, 36.1928], [76.563, 36.1731], [76.6012, 36.1655], [76.6373, 36.1849], [76.6444, 36.184], [76.6648, 36.1581], [76.7037, 36.1289], [76.7196, 36.0832], [76.8019, 36.0479], [76.7988, 36.0384], [76.8078, 36.0187], [76.7697, 36.0094], [76.7543, 35.9901], [76.7543, 35.9827], [76.7228, 35.9534], [76.779, 35.8987], [76.7941, 35.8628], [76.8118, 35.8448], [76.8579, 35.8312], [76.8949, 35.7997], [76.9352, 35.7841], [77.0207, 35.7746], [77.0587, 35.7843], [77.0801, 35.7976], [77.1157, 35.7978], [77.127, 35.7827], [77.1361, 35.7818], [77.1435, 35.7697], [77.1642, 35.7667], [77.1631, 35.7405], [77.1673, 35.7346], [77.1937, 35.733], [77.2072, 35.7265], [77.221, 35.7282], [77.2282, 35.7125], [77.2678, 35.7091], [77.2775, 35.7204], [77.2855, 35.7111], [77.3152, 35.6991], [77.3276, 35.7191], [77.3584, 35.7177], [77.3692, 35.7044], [77.3708, 35.6952], [77.3865, 35.6898], [77.4016, 35.6625], [77.4221, 35.6616], [77.431, 35.6546], [77.4379, 35.6411], [77.4335, 35.6303], [77.4368, 35.6222], [77.4271, 35.6105], [77.4569, 35.5936], [77.4656, 35.5733], [77.4606, 35.5477], [77.4866, 35.532], [77.4724, 35.5211], [77.4518, 35.5266], [77.4353, 35.5174], [77.4089, 35.5282], [77.3919, 35.5458], [77.3784, 35.5503], [77.3454, 35.5468], [77.3208, 35.5326], [77.3425, 35.5122], [77.3487, 35.4937], [77.3663, 35.4937], [77.3792, 35.4777], [77.4138, 35.4731], [77.4396, 35.4615], [77.5125, 35.4886], [77.54, 35.4813], [77.5688, 35.4851], [77.582, 35.4751], [77.5938, 35.4764], [77.6141, 35.4696], [77.6279, 35.4743], [77.645, 35.4891], [77.6724, 35.4706], [77.6801, 35.471], [77.6867, 35.4777], [77.723, 35.4755], [77.7265, 35.4849], [77.7245, 35.5151], [77.7336, 35.5245], [77.7583, 35.5022], [77.7728, 35.4954], [77.7871, 35.4953], [77.8083, 35.5112], [77.8185, 35.5129], [77.8547, 35.4927], [77.8645, 35.4812], [77.8871, 35.485], [77.9013, 35.4681], [77.922, 35.4945], [77.9719, 35.4582], [77.9825, 35.4559], [77.9843, 35.4646], [77.9651, 35.4791], [77.9649, 35.496], [77.9312, 35.5158], [77.9376, 35.5322], [77.9668, 35.5716], [77.966, 35.5876], [77.9525, 35.607], [77.9651, 35.6039], [77.991, 35.5818], [78.042, 35.5874], [78.0777, 35.5492], [78.0929, 35.5562], [78.1373, 35.5389], [78.1473, 35.5496], [78.1567, 35.552], [78.1516, 35.5782], [78.1665, 35.6132], [78.1622, 35.6294], [78.1682, 35.6302], [78.1792, 35.6223], [78.1861, 35.624], [78.1985, 35.6486], [78.1997, 35.6692], [78.2303, 35.6519], [78.2551, 35.6456], [78.2593, 35.6584], [78.2721, 35.6689], [78.2675, 35.711], [78.2733, 35.722], [78.2894, 35.7257], [78.3389, 35.7206], [78.3861, 35.7355], [78.3975, 35.7462], [78.3998, 35.7563], [78.4126, 35.7659], [78.4163, 35.7793], [78.4232, 35.7853], [78.4647, 35.7742], [78.5091, 35.7727], [78.5213, 35.7638], [78.5605, 35.7925], [78.5749, 35.7897], [78.5806, 35.8081], [78.6195, 35.8171], [78.665, 35.8574], [78.6914, 35.8563], [78.7189, 35.8683], [78.7688, 35.8697], [78.7902, 35.8593], [78.8238, 35.8558], [78.9399, 35.8796], [78.9605, 35.8926], [78.9704, 35.8889], [79.0038, 35.8568], [79.0216, 35.8487], [79.1325, 35.8362], [79.157, 35.8503], [79.194, 35.8869], [79.1978, 35.8986], [79.1881, 35.9274], [79.1898, 35.9472], [79.2155, 35.9788], [79.2418, 35.9868], [79.3448, 35.9886], [79.3781, 35.9953], [79.3868, 35.9905], [79.4031, 35.9188], [79.4221, 35.8965], [79.5184, 35.8835], [79.5599, 35.8618], [79.712, 35.8195], [79.725, 35.806], [79.7375, 35.802], [79.7964, 35.7972], [79.8711, 35.783], [79.9102, 35.8172], [79.93, 35.8274], [79.9722, 35.8407], [79.9992, 35.8378], [80.0382, 35.7998], [80.0582, 35.7499], [80.0882, 35.7252], [80.1081, 35.6809], [80.2373, 35.6419], [80.2743, 35.6228], [80.2915, 35.6074], [80.3113, 35.5542], [80.328, 35.4697], [80.318, 35.4635], [80.2976, 35.4608], [80.2811, 35.4409], [80.2835, 35.3879], [80.2709, 35.3442], [80.2357, 35.2766], [80.226, 35.22], [80.1835, 35.1667], [80.1779, 35.1369], [80.1859, 35.0632], [80.1748, 35.0023], [80.1237, 34.8934], [80.1068, 34.868], [80.084, 34.8488], [80.0731, 34.8284], [80.067, 34.7906], [80.0728, 34.7461], [80.069, 34.7148], [80.0445, 34.7044], [79.9446, 34.6811], [79.9003, 34.6913], [79.8607, 34.6888], [79.8248, 34.6611], [79.8165, 34.6434], [79.8043, 34.643], [79.7759, 34.6276], [79.7726, 34.6205], [79.793, 34.5896], [79.771, 34.5821], [79.759, 34.566], [79.7585, 34.5547], [79.775, 34.552], [79.8103, 34.5313], [79.8152, 34.5202], [79.8145, 34.5001], [79.794, 34.4851], [79.7334, 34.4783], [79.6846, 34.4787], [79.673, 34.4836], [79.662, 34.4797], [79.6524, 34.4884], [79.6089, 34.492], [79.5933, 34.5008], [79.5709, 34.4867], [79.5085, 34.4743], [79.5273, 34.4455], [79.5281, 34.418], [79.5419, 34.4101], [79.5612, 34.41], [79.554, 34.388], [79.5622, 34.3635], [79.5596, 34.3324], [79.5919, 34.2828], [79.5857, 34.2444], [79.5724, 34.2229], [79.5501, 34.2151], [79.5445, 34.2073], [79.5371, 34.2058], [79.5196, 34.2129], [79.5072, 34.2058], [79.4897, 34.1572], [79.4947, 34.1359], [79.4612, 34.102], [79.4326, 34.0927], [79.4203, 34.0781], [79.4145, 34.0549], [79.43, 34.0434], [79.4379, 34.0286], [79.4266, 34.0174], [79.4143, 34.0149], [79.3988, 34.0271], [79.3555, 34.0369], [79.306, 34.043], [79.2744, 34.0394], [79.2477, 34.0513], [79.1981, 34.0512], [79.1788, 34.0721], [79.1712, 34.0729], [79.1649, 34.0666], [79.1516, 34.0681], [79.1438, 34.0352], [79.1358, 34.0272], [79.1126, 34.0197], [79.062, 34.0287], [79.0224, 34.0509], [78.952, 34.0289], [78.9406, 34.024], [78.9234, 33.9937], [78.9057, 33.9762], [78.9067, 33.9689], [78.9212, 33.9573], [78.937, 33.9272], [78.9483, 33.9207], [78.9438, 33.9086], [78.9527, 33.9024], [78.9617, 33.871], [79.0008, 33.8033], [79.0065, 33.7976], [79.0192, 33.7988], [79.0125, 33.7869], [79.0168, 33.7787], [79.0245, 33.7752], [79.0341, 33.7837], [79.0473, 33.7661], [79.0538, 33.7784], [79.0603, 33.7803], [79.0685, 33.7564], [79.043, 33.7497], [79.0431, 33.7385], [79.0262, 33.7227], [79.0205, 33.7057], [79.029, 33.6918], [79.054, 33.6781], [79.0718, 33.6791], [79.0863, 33.6884], [79.0912, 33.687], [79.0905, 33.6571], [79.1071, 33.6169], [79.0995, 33.6137], [79.0654, 33.6268], [79.0478, 33.6277], [79.0201, 33.6235], [78.9899, 33.6112], [78.9498, 33.6207], [78.9224, 33.6332], [78.9145, 33.6279], [78.9182, 33.5871], [78.9152, 33.5743], [78.9278, 33.5598], [78.9428, 33.5093], [78.9315, 33.4739], [78.9333, 33.4328], [78.9403, 33.4123], [78.95, 33.4084], [78.9537, 33.3811], [78.9687, 33.3755], [78.9726, 33.3605], [78.9803, 33.3559], [78.9892, 33.3335], [78.9964, 33.3305], [79.0178, 33.3355], [79.0619, 33.3098], [79.1108, 33.2919], [79.1663, 33.2901], [79.1769, 33.2945], [79.2086, 33.2924], [79.2406, 33.2978], [79.3157, 33.2732], [79.3701, 33.2827], [79.4475, 33.2648], [79.4549, 33.2585], [79.4467, 33.2058], [79.3934, 33.1244], [79.3774, 33.0847], [79.3935, 33.0541], [79.3938, 33.0362], [79.3823, 33.0277], [79.341, 33.0185], [79.332, 33.0121], [79.3552, 33.0029], [79.3682, 32.9909], [79.3841, 32.9891], [79.3856, 32.968], [79.4093, 32.9701], [79.4223, 32.9615], [79.464, 32.9201], [79.4889, 32.8813], [79.5161, 32.8557], [79.568, 32.7868], [79.5823, 32.7811], [79.5873, 32.774], [79.6032, 32.777], [79.6272, 32.7393], [79.5784, 32.6787], [79.5671, 32.6733], [79.5157, 32.6081], [79.4698, 32.5763], [79.4617, 32.553], [79.4481, 32.5325], [79.4242, 32.5272], [79.4068, 32.5297], [79.3994, 32.5371], [79.3945, 32.5723], [79.3395, 32.592], [79.3207, 32.5927], [79.2951, 32.5501], [79.2736, 32.5324], [79.2509, 32.5341], [79.2378, 32.5059], [79.1951, 32.483], [79.1479, 32.4811], [79.1374, 32.4769], [79.1313, 32.4661], [79.1466, 32.4429], [79.1443, 32.4227], [79.1257, 32.4136], [79.1151, 32.3842], [79.071, 32.3907], [79.0337, 32.3859], [79.0146, 32.3773], [78.9938, 32.3452], [78.9819, 32.3378], [78.9617, 32.3661], [78.95, 32.3673], [78.9035, 32.3929], [78.8753, 32.4172], [78.8589, 32.4406], [78.8344, 32.4361], [78.8272, 32.4387], [78.7768, 32.5584], [78.7764, 32.5731], [78.7943, 32.5891], [78.7959, 32.6104], [78.7632, 32.6535], [78.7698, 32.6921], [78.7691, 32.6971], [78.7627, 32.6978], [78.7423, 32.6737], [78.7231, 32.6612], [78.6623, 32.654], [78.639, 32.6097], [78.6209, 32.5967], [78.5881, 32.6159], [78.5734, 32.6176], [78.5357, 32.6086], [78.4996, 32.5817], [78.4598, 32.58], [78.4366, 32.5616], [78.428, 32.5318], [78.4, 32.526], [78.3278, 32.4722], [78.296, 32.5043], [78.3167, 32.5257], [78.3142, 32.574], [78.3494, 32.5813], [78.4066, 32.6197], [78.3937, 32.626], [78.3887, 32.6346], [78.381, 32.6685], [78.3855, 32.6961], [78.3958, 32.7159], [78.3892, 32.7303], [78.3894, 32.7584], [78.3627, 32.7601], [78.3056, 32.7345], [78.316, 32.7214], [78.3136, 32.7094], [78.2544, 32.6913], [78.251, 32.6803], [78.2307, 32.6658], [78.2017, 32.6605], [78.1882, 32.6739], [78.1703, 32.6757], [78.1537, 32.667], [78.1391, 32.639], [78.1338, 32.6391], [78.111, 32.6589], [78.0966, 32.6495], [78.0829, 32.621], [78.0515, 32.6324], [78.052, 32.6124], [78.059, 32.602], [78.0533, 32.5886], [78.0349, 32.5837], [78.0, 32.5832], [77.9718, 32.6228], [77.9702, 32.6372], [77.9565, 32.6449], [77.9378, 32.6764], [77.9209, 32.69], [77.9271, 32.7184], [77.9362, 32.7278], [77.9295, 32.7335], [77.9357, 32.7539], [77.9329, 32.7631], [77.9173, 32.7724], [77.8987, 32.7725], [77.8848, 32.7874], [77.8868, 32.7975], [77.8791, 32.8133], [77.8655, 32.8256], [77.843, 32.8371], [77.8261, 32.8332], [77.8169, 32.8431], [77.7793, 32.8621], [77.7907, 32.8882], [77.8049, 32.889], [77.8105, 32.8954], [77.8081, 32.9027], [77.7776, 32.9248], [77.7628, 32.9433], [77.7545, 32.9453], [77.7306, 32.9693], [77.7217, 32.9636], [77.7131, 32.9753], [77.6976, 32.9753], [77.6889, 32.9838], [77.6833, 32.9836], [77.6713, 32.9569], [77.6565, 32.9537], [77.6309, 32.939], [77.6043, 32.9375], [77.6019, 32.9414], [77.5875, 32.9192], [77.5626, 32.9093], [77.5374, 32.885], [77.5121, 32.8791], [77.5023, 32.8842], [77.4729, 32.8594], [77.4539, 32.8636], [77.4434, 32.8814], [77.4278, 32.8759], [77.415, 32.8847], [77.4052, 32.8833], [77.3773, 32.8573], [77.3803, 32.8443], [77.374, 32.823], [77.3454, 32.8176], [77.3284, 32.8355], [77.3301, 32.8441], [77.3227, 32.8519], [77.2988, 32.8535], [77.2759, 32.8743], [77.2652, 32.8628], [77.2564, 32.8631], [77.2539, 32.8702], [77.2424, 32.878], [77.2459, 32.8935], [77.2066, 32.9081], [77.1915, 32.9292], [77.1814, 32.9232], [77.1751, 32.9113], [77.1638, 32.9121], [77.1684, 32.9183], [77.1664, 32.9395], [77.1638, 32.9546], [77.153, 32.9591], [77.1541, 32.9787], [77.1209, 32.9855], [77.1148, 32.9759], [77.0926, 32.9716], [77.0836, 32.9839], [77.053, 32.9981], [77.0376, 32.9902], [77.0161, 32.988], [76.9842, 33.0057], [76.9798, 33.0125], [76.9352, 33.0323], [76.9085, 33.0795], [76.9121, 33.0939], [76.9026, 33.0962], [76.8951, 33.113], [76.8866, 33.1191], [76.8704, 33.1104], [76.8623, 33.1112], [76.8519, 33.1194], [76.8552, 33.1253], [76.8459, 33.1306], [76.8471, 33.1366], [76.8351, 33.1409], [76.8213, 33.1547], [76.816, 33.1723], [76.8245, 33.1838], [76.8213, 33.1929], [76.8366, 33.2046], [76.8291, 33.2145], [76.8464, 33.2455], [76.832, 33.2465], [76.8208, 33.2358], [76.7963, 33.2549], [76.7734, 33.2487], [76.7804, 33.2387], [76.7779, 33.2238], [76.7601, 33.1966], [76.7523, 33.1923], [76.7478, 33.1786], [76.7146, 33.1807], [76.7031, 33.1732], [76.6689, 33.1711], [76.6448, 33.1618], [76.6174, 33.1731], [76.6151, 33.1874], [76.6018, 33.1925], [76.604, 33.2037], [76.5997, 33.2063], [76.5653, 33.209], [76.552, 33.1989], [76.5137, 33.1956], [76.4868, 33.1795], [76.4395, 33.1815], [76.4254, 33.1881], [76.4094, 33.1864], [76.3838, 33.1678], [76.3734, 33.1544], [76.3094, 33.12], [76.2924, 33.1038], [76.2726, 33.0521], [76.2546, 33.0324], [76.1694, 33.0229], [76.1454, 33.0101], [76.1108, 33.0049], [76.0992, 32.9688], [76.0674, 32.9443], [76.045, 32.9375], [76.0341, 32.9177], [76.0215, 32.9141], [76.0042, 32.9007], [75.9625, 32.8853], [75.9506, 32.8845], [75.9169, 32.916], [75.8839, 32.9306], [75.8507, 32.9351], [75.8247, 32.9303], [75.815, 32.9199], [75.8167, 32.9044], [75.8041, 32.8938], [75.8065, 32.8819], [75.8221, 32.8565], [75.8376, 32.8431], [75.8904, 32.8139], [75.9166, 32.7699], [75.929, 32.7571], [75.9263, 32.7209], [75.9129, 32.691], [75.9217, 32.6722], [75.9404, 32.6581], [75.9399, 32.6435], [75.9024, 32.5918], [75.8538, 32.5375], [75.841, 32.5091], [75.8202, 32.4869], [75.7947, 32.4749], [75.7617, 32.4763], [75.7272, 32.4181], [75.7006, 32.4006], [75.6636, 32.3889], [75.6082, 32.3819], [75.5606, 32.3611], [75.5396, 32.3403], [75.5311, 32.2982], [75.5142, 32.2755], [75.5053, 32.2882], [75.5055, 32.3105], [75.4952, 32.3106], [75.483, 32.3179], [75.4876, 32.3404], [75.4302, 32.3247], [75.3938, 32.3294], [75.347, 32.3454], [75.3247, 32.3413], [75.318, 32.3345], [75.3054, 32.3378], [75.3005, 32.3461], [75.2891, 32.3517], [75.2917, 32.3592], [75.287, 32.3662], [75.2589, 32.3648], [75.255, 32.385], [75.2397, 32.3798], [75.2166, 32.3952], [75.2055, 32.3906], [75.1966, 32.393], [75.1929, 32.4029], [75.2014, 32.411], [75.1897, 32.4199], [75.1672, 32.419], [75.1324, 32.4027], [75.1292, 32.4209], [75.137, 32.425], [75.1233, 32.4353], [75.1081, 32.4732], [75.1019, 32.4735], [75.0898, 32.4643], [75.0736, 32.4736], [75.0548, 32.4759], [75.0333, 32.4927], [75.0219, 32.4844], [75.0177, 32.4657], [75.0046, 32.4523], [74.9915, 32.4474], [74.9626, 32.4495], [74.9504, 32.4405], [74.9361, 32.4626], [74.9169, 32.459], [74.9068, 32.4659], [74.9029, 32.4608], [74.8956, 32.4614], [74.8783, 32.4721], [74.8765, 32.4825], [74.8473, 32.4819], [74.8174, 32.4888], [74.8123, 32.4767], [74.801, 32.4759], [74.7937, 32.4689], [74.7684, 32.4747], [74.7519, 32.4697], [74.7352, 32.4743], [74.716, 32.4706], [74.7044, 32.4854], [74.6852, 32.482], [74.681, 32.4865], [74.6796, 32.5066], [74.6885, 32.525], [74.6631, 32.536], [74.6603, 32.5413], [74.6703, 32.5502], [74.6682, 32.5595], [74.6521, 32.5593], [74.6473, 32.578], [74.6495, 32.591], [74.6398, 32.5943], [74.6348, 32.6026], [74.637, 32.6106], [74.6493, 32.6128], [74.6522, 32.6297], [74.6637, 32.6303], [74.6699, 32.6411], [74.6832, 32.6449], [74.6927, 32.6548], [74.679, 32.668], [74.6622, 32.6728], [74.6504, 32.6983], [74.6821, 32.7819], [74.7, 32.8105], [74.7014, 32.8351], [74.6643, 32.8216], [74.6524, 32.8271], [74.636, 32.8135], [74.6328, 32.7998], [74.6539, 32.7813], [74.65, 32.7769], [74.6363, 32.7781], [74.6315, 32.7743], [74.6293, 32.7659], [74.6353, 32.7508], [74.6311, 32.7469], [74.6131, 32.7555], [74.5756, 32.745], [74.5688, 32.7544], [74.557, 32.7571], [74.5439, 32.7433], [74.5267, 32.7404], [74.5146, 32.7435], [74.5094, 32.7387], [74.5013, 32.7604], [74.483, 32.7622], [74.4724, 32.7723], [74.461, 32.7732], [74.4545, 32.7844], [74.4399, 32.7798], [74.4065, 32.7827], [74.3973, 32.7664], [74.388, 32.7686], [74.385, 32.7583], [74.3708, 32.759], [74.3306, 32.7765], [74.3192, 32.792], [74.3092, 32.7925], [74.3022, 32.8047], [74.3018, 32.8233], [74.2841, 32.8301], [74.2645, 32.8302], [74.2443, 32.8424], [74.2174, 32.8453], [74.2025, 32.8707], [74.1873, 32.8732], [74.1782, 32.883], [74.06, 32.9093], [74.0528, 32.916], [74.0523, 32.9307], [74.0486, 32.9324], [74.0143, 32.9298], [73.9883, 32.9357], [73.9979, 32.9519], [73.9973, 32.9602], [73.9685, 32.9692], [73.9583, 32.987], [73.9291, 32.985], [73.8965, 33.0024], [73.8296, 33.0074], [73.8183, 33.0004], [73.8158, 32.984], [73.8083, 32.9725], [73.7865, 32.9657], [73.7797, 32.9747], [73.7902, 32.9935], [73.7887, 32.9985], [73.7434, 33.0394], [73.7353, 33.0667], [73.6886, 33.0884], [73.6526, 33.0852], [73.6279, 33.0899], [73.6256, 33.1119], [73.6305, 33.1281], [73.6261, 33.14], [73.6376, 33.1423], [73.6464, 33.162], [73.6564, 33.1693], [73.6577, 33.2081], [73.6453, 33.2171], [73.6409, 33.2268], [73.6364, 33.226], [73.6314, 33.2139], [73.6287, 33.2157], [73.6253, 33.2369], [73.6056, 33.2517], [73.598, 33.2827], [73.6041, 33.2953], [73.5898, 33.3053], [73.5821, 33.3265], [73.5908, 33.3369], [73.5868, 33.341], [73.5751, 33.3342], [73.5658, 33.3425], [73.5714, 33.3562], [73.5585, 33.3684], [73.5649, 33.3943], [73.5858, 33.4207], [73.5914, 33.4222], [73.5827, 33.4294], [73.5883, 33.4358], [73.5879, 33.4435], [73.6249, 33.4576], [73.6244, 33.4657], [73.615, 33.4721], [73.6131, 33.4802], [73.6016, 33.4784], [73.5966, 33.5005], [73.6002, 33.505], [73.6095, 33.5009], [73.6073, 33.52], [73.6321, 33.5293], [73.6331, 33.5335], [73.619, 33.544], [73.621, 33.5742], [73.6009, 33.5933], [73.6038, 33.6076], [73.5895, 33.6046], [73.5783, 33.6162], [73.5645, 33.6168], [73.5614, 33.6215], [73.5691, 33.6411], [73.5619, 33.6643], [73.5632, 33.6759], [73.5911, 33.6989], [73.5976, 33.7162], [73.5913, 33.7542], [73.5664, 33.769], [73.5584, 33.7836], [73.5729, 33.8458], [73.5857, 33.8646], [73.5899, 33.8843], [73.579, 33.9108], [73.5496, 33.9315], [73.5165, 34.0005], [73.5083, 34.0603], [73.4975, 34.0844], [73.4987, 34.1076], [73.4928, 34.1204], [73.4953, 34.134], [73.489, 34.1448], [73.4922, 34.1566], [73.4882, 34.1884], [73.4931, 34.2202], [73.4779, 34.2348], [73.47, 34.2518], [73.4786, 34.2906], [73.4748, 34.296], [73.4678, 34.296], [73.4617, 34.2821], [73.4538, 34.2783], [73.4536, 34.2973], [73.4445, 34.3093], [73.4381, 34.3296], [73.4242, 34.3397], [73.4251, 34.3535], [73.4015, 34.3584], [73.3913, 34.3772], [73.4093, 34.3868], [73.4202, 34.4178], [73.4254, 34.4423], [73.4222, 34.4707], [73.4375, 34.5045], [73.4299, 34.5214], [73.4413, 34.5384], [73.4429, 34.5653], [73.4478, 34.5742], [73.4605, 34.5784], [73.4758, 34.5742], [73.5007, 34.5806], [73.523, 34.5747], [73.5355, 34.5777], [73.5574, 34.5934], [73.6184, 34.5861], [73.6395, 34.5662], [73.6509, 34.5683], [73.6609, 34.589], [73.6602, 34.6104], [73.6962, 34.6541], [73.6669, 34.6661], [73.6635, 34.671], [73.6675, 34.6847], [73.6813, 34.6956], [73.6916, 34.7167], [73.7066, 34.7254], [73.7314, 34.7715], [73.7501, 34.7872], [73.7738, 34.7969], [73.8211, 34.796], [73.8497, 34.8177], [73.8674, 34.8115], [73.8754, 34.8184], [73.9012, 34.8218], [73.9182, 34.8145], [73.9357, 34.8335], [73.955, 34.8354], [73.9644, 34.8417], [73.9744, 34.8653], [74.0304, 34.8776], [74.0422, 34.8945], [74.0381, 34.9033], [74.0439, 34.9219], [74.0658, 34.9301], [74.074, 34.94], [74.0643, 34.9649], [74.0655, 34.9888], [74.0605, 34.9936], [74.0909, 35.0062], [74.1082, 35.0195], [74.0977, 35.0342], [74.0664, 35.0485], [74.0933, 35.0965], [74.13, 35.1056], [74.1342, 35.1126], [74.1107, 35.1302], [74.1169, 35.1464], [74.1142, 35.1519], [74.102, 35.1458], [74.0804, 35.1547], [74.0391, 35.1475], [74.0091, 35.1661], [73.9998, 35.1844], [73.9592, 35.1744], [73.9332, 35.2028], [73.9173, 35.2122], [73.8652, 35.2108], [73.8468, 35.2296], [73.8116, 35.2425], [73.7775, 35.2439], [73.7561, 35.2274], [73.7317, 35.2173], [73.7164, 35.226], [73.7271, 35.2783], [73.6999, 35.3232], [73.7004, 35.3584], [73.7116, 35.3872], [73.7389, 35.4279], [73.7547, 35.442], [73.7951, 35.4602], [73.7849, 35.5257], [73.7351, 35.5366], [73.7208, 35.5535], [73.6727, 35.5512], [73.6355, 35.5718], [73.6248, 35.571], [73.6156, 35.5631], [73.5711, 35.5548], [73.5579, 35.5557], [73.5321, 35.5711], [73.5067, 35.5654], [73.4818, 35.5773], [73.4068, 35.564], [73.3674, 35.6055], [73.314, 35.6156], [73.2727, 35.6298], [73.2155, 35.6751], [73.1878, 35.6864], [73.1363, 35.7192], [73.1328, 35.7385], [73.1357, 35.7938], [73.1542, 35.8417], [73.1277, 35.853], [73.1004, 35.8782], [73.0778, 35.8862], [73.056, 35.8637], [73.0381, 35.8548], [73.0141, 35.8553], [72.9997, 35.8635], [72.9578, 35.8477], [72.9294, 35.8455], [72.9047, 35.8536], [72.9016, 35.8817], [72.8576, 35.8777], [72.8302, 35.8874], [72.8253, 35.8748], [72.799, 35.8675], [72.7981, 35.8558], [72.7773, 35.844], [72.7375, 35.8588], [72.6911, 35.8329], [72.6604, 35.8492], [72.6456, 35.8663], [72.5982, 35.8733], [72.5695, 35.9073], [72.5383, 35.9146], [72.53, 35.9265], [72.5311, 35.9529], [72.5386, 35.9605], [72.5484, 35.9625], [72.5561, 35.9967], [72.5732, 35.9964], [72.5822, 36.0081], [72.5836, 36.0197], [72.596, 36.0273], [72.5862, 36.0504], [72.55, 36.0567], [72.5311, 36.0747], [72.5366, 36.1145], [72.5525, 36.1367], [72.5738, 36.151], [72.5627, 36.1722], [72.5515, 36.1812], [72.5603, 36.1966], [72.5605, 36.2124], [72.5854, 36.2305], [72.5885, 36.2512], [72.5971, 36.2642], [72.6367, 36.2765], [72.6635, 36.2642], [72.6819, 36.2628], [72.694, 36.2501], [72.6953, 36.2593], [72.6886, 36.2686], [72.6924, 36.2757], [72.7236, 36.2841], [72.7505, 36.3051], [72.7786, 36.3099], [72.7991, 36.3304], [72.8157, 36.3384], [72.8297, 36.3611], [72.8509, 36.3727], [72.8664, 36.3735], [72.8901, 36.3978], [72.8867, 36.4148], [72.8902, 36.4247], [72.8775, 36.4381], [72.8795, 36.4433], [72.9025, 36.4495], [72.9223, 36.463], [72.9435, 36.4585], [72.9628, 36.4675], [72.9921, 36.4581], [73.0039, 36.4761], [72.9904, 36.4805], [72.9925, 36.4969], [72.9994, 36.5074], [72.996, 36.5149], [73.0615, 36.5377], [73.0739, 36.5615], [73.0906, 36.5716], [73.0929, 36.5866], [73.1125, 36.6101], [73.092, 36.6348], [73.0944, 36.6671], [73.085, 36.6823], [73.0854, 36.6997], [73.1028, 36.6877], [73.1265, 36.6866], [73.1455, 36.7], [73.1811, 36.712], [73.1894, 36.7218], [73.2027, 36.7156], [73.215, 36.7], [73.2344, 36.6995], [73.2484, 36.703], [73.2532, 36.7091], [73.3147, 36.7064], [73.3303, 36.7155], [73.3608, 36.7155], [73.3721, 36.7349], [73.4, 36.7317], [73.4416, 36.7451], [73.4634, 36.7317], [73.4825, 36.7339], [73.5115, 36.7154], [73.5299, 36.7207], [73.5439, 36.7094], [73.5604, 36.7162], [73.5791, 36.713], [73.6002, 36.7203], [73.6063, 36.7139], [73.6075, 36.6985], [73.6332, 36.6901], [73.6549, 36.6961], [73.7006, 36.6849], [73.7088, 36.6889], [73.7251, 36.71], [73.7484, 36.71], [73.7831, 36.7024], [73.8091, 36.7167], [73.8663, 36.7001], [73.8841, 36.6993], [73.9016, 36.707], [73.8972, 36.7163], [73.9065, 36.7315], [73.9001, 36.7497], [73.8636, 36.7882], [73.8294, 36.7893], [73.8151, 36.7984], [73.8063, 36.8154], [73.7782, 36.8153], [73.7442, 36.8334], [73.7239, 36.8344], [73.7191, 36.8572], [73.6814, 36.8856], [73.6903, 36.9121], [73.7112, 36.9128], [73.7454, 36.8964], [73.7677, 36.9047], [73.7933, 36.8937], [73.8097, 36.8965], [73.8181, 36.8857], [73.8358, 36.8869], [73.8422, 36.8984], [73.8491, 36.8999], [73.8788, 36.8944], [73.9134, 36.8713], [73.9238, 36.878], [73.9378, 36.8739], [73.9714, 36.8401], [73.9943, 36.8266], [74.026, 36.8263], [74.0558, 36.8064], [74.0927, 36.8386], [74.121, 36.8323], [74.1427, 36.8401], [74.1568, 36.8887], [74.1691, 36.9025], [74.2178, 36.8989], [74.2441, 36.8876], [74.2614, 36.8866], [74.2835, 36.903], [74.3239, 36.9227], [74.3683, 36.9589], [74.4162, 36.9731], [74.4299, 36.99], [74.4688, 36.9924], [74.5322, 36.9868], [74.543, 36.9765], [74.5545, 36.9536], [74.5787, 36.9486], [74.5894, 37.0286], [74.5805, 37.0387], [74.5865, 37.0453], [74.6593, 37.0577], [74.6851, 37.0748], [74.7087, 37.0776], [74.7185, 37.0628], [74.722, 37.0386], [74.7345, 37.0207]]]}}]}